NORAD_CAT_ID,OBJECT_NAME,OBJECT_TYPE,EPOCH,MEAN_MOTION,ECCENTRICITY,INCLINATION,RA_OF_ASC_NODE,ARG_OF_PERICENTER,MEAN_ANOMALY,BSTAR,MEAN_MOTION_DOT,MEAN_MOTION_DDOT,TLE_LINE0,TLE_LINE1,TLE_LINE2,SEMIMAJOR_AXIS,PERIOD,APOGEE,PERIGEE,DECAYED
56465.0,STARLINK-6054,PAYLOAD,2023-10-30 12:32:13,15.50139282,0.0003423,69.9959,119.0942,276.9286,83.151,-0.0043325,-0.00237843,0.0,0 STARLINK-6054,1 56465U 23064T   23303.52237782 -.00237843  00000-0 -43325-2 0  9996,2 56465  69.9959 119.0942 0003423 276.9286  83.1510 15.50139282 27501,6794.456,92.895,418.647,413.995,0.0
56465.0,STARLINK-6054,PAYLOAD,2023-10-30 22:00:00,15.47858594,0.0003626,69.9981,118.0171,281.4847,118.9564,-0.018332,-0.00871495,0.0,0 STARLINK-6054,1 56465U 23064T   23303.91667824 -.00871495  00000-0 -18332-1 0  9999,2 56465  69.9981 118.0171 0003626 281.4847 118.9564 15.47858594 27560,6801.129,93.032,425.46,420.527,0.0
56465.0,STARLINK-6054,PAYLOAD,2023-10-31 14:00:01,15.46598133,0.0003487,69.9988,116.2053,276.1355,236.5109,-0.020747,-0.00950512,0.0,0 STARLINK-6054,1 56465U 23064T   23304.58334491 -.00950512  00000-0 -20747-1 0  9995,2 56465  69.9988 116.2053 0003487 276.1355 236.5109 15.46598133 27679,6804.823,93.108,429.061,424.315,0.0
56465.0,STARLINK-6054,PAYLOAD,2023-10-31 22:00:01,15.45898014,0.0003508,69.9986,115.3007,280.5346,287.1344,-0.019501,-0.00866497,0.0,0 STARLINK-6054,1 56465U 23064T   23304.91668981 -.00866497  00000-0 -19501-1 0  9990,2 56465  69.9986 115.3007 0003508 280.5346 287.1344 15.45898014  5870,6806.878,93.15,431.131,426.355,0.0
56465.0,STARLINK-6054,PAYLOAD,2023-11-01 14:00:01,15.44641302,0.0003609,69.9989,113.4942,274.6158,40.5626,-0.022227,-0.00951946,0.0,0 STARLINK-6054,1 56465U 23064T   23305.58335648 -.00951946  00000-0 -22227-1 0  9998,2 56465  69.9989 113.4942 0003609 274.6158  40.5626 15.44641302 27825,6810.569,93.226,434.892,429.976,0.0
56465.0,STARLINK-6054,PAYLOAD,2023-11-01 22:00:00,15.43950199,0.0003516,69.9988,112.5922,279.3469,88.3751,-0.021204,-0.00891946,0.0,0 STARLINK-6054,1 56465U 23064T   23305.91667824 -.00891946  00000-0 -21204-1 0  9996,2 56465  69.9988 112.5922 0003516 279.3469  88.3751 15.43950199  6031,6812.601,93.267,436.862,432.071,0.0
56465.0,STARLINK-6054,PAYLOAD,2023-11-02 14:00:01,15.42684747,0.0003392,69.9989,110.7914,275.7213,194.8209,-0.023862,-0.00955909,0.0,0 STARLINK-6054,1 56465U 23064T   23306.58334491 -.00955909  00000-0 -23862-1 0  9993,2 56465  69.9989 110.7914 0003392 275.7213 194.8209 15.42684747 27982,6816.326,93.344,440.504,435.879,0.0
56465.0,STARLINK-6054,PAYLOAD,2023-11-02 22:00:01,15.41992533,0.0003431,69.9987,109.8921,280.4294,240.4349,-0.022559,-0.0088853,0.0,0 STARLINK-6054,1 56465U 23064T   23306.91668981 -.00888530  00000-0 -22559-1 0  9991,2 56465  69.9987 109.8921 0003431 280.4294 240.4349 15.41992533  6033,6818.366,93.386,442.571,437.892,0.0
56465.0,STARLINK-6054,PAYLOAD,2023-11-03 06:00:00,15.41324948,0.0003354,69.9989,108.9939,274.559,295.71,-0.022696,-0.00875254,0.0,0 STARLINK-6054,1 56465U 23064T   23307.25001157 -.00875254  00000-0 -22696-1 0  9996,2 56465  69.9989 108.9939 0003354 274.5590 295.7100 15.41324948 28087,6820.335,93.426,444.487,439.912,0.0
56465.0,STARLINK-6054,PAYLOAD,2023-11-03 14:00:01,15.40724115,0.0003445,69.9992,108.0967,274.119,344.8112,-0.025255,-0.00948149,0.0,0 STARLINK-6054,1 56465U 23064T   23307.58334491 -.00948149  00000-0 -25255-1 0  9990,2 56465  69.9992 108.0967 0003445 274.1190 344.8112 15.40724115  5663,6822.108,93.463,446.323,441.623,0.0
56465.0,STARLINK-6054,PAYLOAD,2023-11-03 22:00:00,15.40038587,0.0003565,69.9988,107.2,279.6776,27.163,-0.024235,-0.00893982,0.0,0 STARLINK-6054,1 56465U 23064T   23307.91667824 -.00893982  00000-0 -24235-1 0  9997,2 56465  69.9988 107.2000 0003565 279.6776  27.1630 15.40038587 28189,6824.132,93.504,448.43,443.565,0.0
56465.0,STARLINK-6054,PAYLOAD,2023-11-04 14:00:01,15.38769402,0.0003556,69.9992,105.4095,277.1325,123.1435,-0.027069,-0.00952353,0.0,0 STARLINK-6054,1 56465U 23064T   23308.58334491 -.00952353  00000-0 -27069-1 0  9998,2 56465  69.9992 105.4095 0003556 277.1325 123.1435 15.38769402 28286,6827.884,93.581,452.177,447.321,0.0
56465.0,STARLINK-6054,PAYLOAD,2023-11-05 00:00:00,15.37943469,0.000334,69.9986,104.2921,280.7254,266.3717,-0.027456,-0.00941145,0.0,0 STARLINK-6054,1 56465U 23064T   23309.00001157 -.00941145  00000-0 -27456-1 0  9993,2 56465  69.9986 104.2921 0003340 280.7254 266.3717 15.37943469  5886,6830.329,93.632,454.475,449.912,0.0
56465.0,STARLINK-6054,PAYLOAD,2023-11-05 06:00:02,15.3740767,0.0003365,69.9987,103.6222,276.5522,214.1265,-0.025593,-0.00868102,0.0,0 STARLINK-6054,1 56465U 23064T   23309.25002315 -.00868102  00000-0 -25593-1 0  9998,2 56465  69.9987 103.6222 0003365 276.5522 214.1265 15.37407670 28391,6831.915,93.664,456.079,451.481,0.0
56465.0,STARLINK-6054,PAYLOAD,2023-11-05 14:00:01,15.36806041,0.000333,69.999,102.73,276.9845,257.5998,-0.028577,-0.00943762,0.0,0 STARLINK-6054,1 56465U 23064T   23309.58334491 -.00943762  00000-0 -28577-1 0  9998,2 56465  69.9990 102.7300 0003330 276.9845 257.5998 15.36806041  5984,6833.698,93.701,457.839,453.288,0.0
56465.0,STARLINK-6054,PAYLOAD,2023-11-05 22:00:00,15.36126838,0.000337,69.9986,101.8386,281.2826,296.5159,-0.027695,-0.00898638,0.0,0 STARLINK-6054,1 56465U 23064T   23309.91667824 -.00898638  00000-0 -27695-1 0  9995,2 56465  69.9986 101.8386 0003370 281.2826 296.5159 15.36126838 28497,6835.713,93.742,459.881,455.274,0.0
56465.0,STARLINK-6054,PAYLOAD,2023-11-06 14:00:01,15.34849498,0.0003367,69.9986,100.0587,275.2449,26.6685,-0.03044,-0.00943916,0.0,0 STARLINK-6054,1 56465U 23064T   23310.58335648 -.00943916  00000-0 -30440-1 0  9998,2 56465  69.9986 100.0587 0003367 275.2449  26.6685 15.34849498 28590,6839.505,93.82,463.672,459.067,0.0
56465.0,STARLINK-6054,PAYLOAD,2023-11-06 22:00:00,15.34173285,0.0003409,69.9983,99.17,279.8188,62.8966,-0.029667,-0.00903782,0.0,0 STARLINK-6054,1 56465U 23064T   23310.91667824 -.00903782  00000-0 -29667-1 0  9995,2 56465  69.9983  99.1700 0003409 279.8188  62.8966 15.34173285  6043,6841.514,93.862,465.711,461.047,0.0
56465.0,STARLINK-6054,PAYLOAD,2023-11-07 14:00:01,15.32892954,0.0003375,69.9984,97.3954,277.2784,144.8602,-0.032503,-0.00946841,0.0,0 STARLINK-6054,1 56465U 23064T   23311.58335648 -.00946841  00000-0 -32503-1 0  9991,2 56465  69.9984  97.3954 0003375 277.2784 144.8602 15.32892954 28750,6845.323,93.94,469.498,464.878,0.0
56465.0,STARLINK-6054,PAYLOAD,2023-11-08 06:00:02,15.31533271,0.0003291,69.9982,95.6244,275.3119,223.0818,-0.030524,-0.00859164,0.0,0 STARLINK-6054,1 56465U 23064T   23312.25002315 -.00859164  00000-0 -30524-1 0  9990,2 56465  69.9982  95.6244 0003291 275.3119 223.0818 15.31533271 28852,6849.374,94.023,473.493,468.985,0.0
56465.0,STARLINK-6054,PAYLOAD,2023-11-08 14:00:01,15.30929667,0.0003274,69.9985,94.7401,274.3597,260.9004,-0.03414,-0.00936023,0.0,0 STARLINK-6054,1 56465U 23064T   23312.58334491 -.00936023  00000-0 -34140-1 0  9997,2 56465  69.9985  94.7401 0003274 274.3597 260.9004 15.30929667  5770,6851.174,94.06,475.282,470.796,0.0
56465.0,STARLINK-6054,PAYLOAD,2023-11-08 22:00:00,15.3026584,0.0003231,69.998,93.8567,276.3945,295.0323,-0.034008,-0.00915163,0.0,0 STARLINK-6054,1 56465U 23064T   23312.91667824 -.00915163  00000-0 -34008-1 0  9998,2 56465  69.9980  93.8567 0003231 276.3945 295.0323 15.30265840 28954,6853.155,94.101,477.235,472.806,0.0
56465.0,STARLINK-6054,PAYLOAD,2023-11-09 14:00:01,15.2878881,0.0003227,69.999,92.0924,274.325,7.1069,-0.010753,-0.00290426,0.0,0 STARLINK-6054,1 56465U 23064T   23313.58334491 -.00290426  00000-0 -10753-1 0  9992,2 56465  69.9990  92.0924 0003227 274.3250   7.1069 15.28788810 29050,6857.569,94.192,481.647,477.221,0.0
56465.0,STARLINK-6054,PAYLOAD,2023-11-09 18:00:00,15.2858189,0.0003265,69.9991,91.6519,276.8034,201.6219,0.001052,0.00029319,0.0,0 STARLINK-6054,1 56465U 23064T   23313.75001157  .00029319  00000-0  10520-2 0  9993,2 56465  69.9991  91.6519 0003265 276.8034 201.6219 15.28581890 29085,6858.188,94.205,482.292,477.814,0.0
56465.0,STARLINK-6054,PAYLOAD,2023-11-09 22:00:00,15.28608187,0.0003409,69.9988,91.2114,276.8795,38.4261,-0.00049892,-0.00014022,0.0,0 STARLINK-6054,1 56465U 23064T   23313.91667824 -.00014022  00000-0 -49892-3 0  9992,2 56465  69.9988  91.2114 0003409 276.8795  38.4261 15.28608187  5998,6858.109,94.203,482.312,477.636,0.0
56465.0,STARLINK-6054,PAYLOAD,2023-11-10 14:00:01,15.28621169,0.0003404,70.0002,89.45,272.0789,110.7886,-0.0012572,-0.00035057,0.0,0 STARLINK-6054,1 56465U 23064T   23314.58334491 -.00035057  00000-0 -12572-2 0  9992,2 56465  70.0002  89.4500 0003404 272.0789 110.7886 15.28621169 29204,6858.07,94.203,482.27,477.601,0.0
56465.0,STARLINK-6054,PAYLOAD,2023-11-10 22:00:00,15.28617492,0.0003436,69.9999,88.5693,275.6463,141.004,-0.00077872,-0.00021799,0.0,0 STARLINK-6054,1 56465U 23064T   23314.91667824 -.00021799  00000-0 -77872-3 0  9991,2 56465  69.9999  88.5693 0003436 275.6463 141.0040 15.28617492  5984,6858.081,94.203,482.303,477.59,0.0
56465.0,STARLINK-6054,PAYLOAD,2023-11-11 06:00:02,15.28566715,0.0003433,70.0003,87.6886,268.35,182.1652,0.0024588,0.00069032,0.0,0 STARLINK-6054,1 56465U 23064T   23315.25002315  .00069032  00000-0  24588-2 0  9992,2 56465  70.0003  87.6886 0003433 268.3500 182.1652 15.28566715 29314,6858.233,94.206,482.453,477.744,0.0
56465.0,STARLINK-6054,PAYLOAD,2023-11-11 14:00:01,15.28617284,0.0003453,70.0007,86.808,271.1219,213.1009,-0.00088051,-0.00024622,0.0,0 STARLINK-6054,1 56465U 23064T   23315.58334491 -.00024622  00000-0 -88051-3 0  9995,2 56465  70.0007  86.8080 0003453 271.1219 213.1009 15.28617284  6040,6858.082,94.203,482.315,477.579,0.0
56465.0,STARLINK-6054,PAYLOAD,2023-11-11 22:00:01,15.28628632,0.0003388,70.0005,85.9272,274.3414,243.7319,-0.0016605,-0.00046204,0.0,0 STARLINK-6054,1 56465U 23064T   23315.91668981 -.00046204  00000-0 -16605-2 0  9991,2 56465  70.0005  85.9272 0003388 274.3414 243.7319 15.28628632 29418,6858.048,94.202,482.236,477.589,0.0
